{
  "links" : {
    "next" : "https://api.nasa.gov/neo/rest/v1/feed?start_date=2011-01-09&end_date=2011-01-09&detailed=true&api_key=t0TVs3DtDT2H8Oy2Zy8m2eVrNsAVKAexjcZXUckd",
    "prev" : "https://api.nasa.gov/neo/rest/v1/feed?start_date=2011-01-07&end_date=2011-01-07&detailed=true&api_key=t0TVs3DtDT2H8Oy2Zy8m2eVrNsAVKAexjcZXUckd",
    "self" : "https://api.nasa.gov/neo/rest/v1/feed?start_date=2011-01-08&end_date=2011-01-08&detailed=true&api_key=t0TVs3DtDT2H8Oy2Zy8m2eVrNsAVKAexjcZXUckd"
  },
  "element_count" : 8,
  "near_earth_objects" : {
    "2011-01-08" : [ {
      "links" : {
        "self" : "https://api.nasa.gov/neo/rest/v1/neo/2004688?api_key=t0TVs3DtDT2H8Oy2Zy8m2eVrNsAVKAexjcZXUckd"
      },
      "neo_reference_id" : "2004688",
      "name" : "4688 (1980 WF)",
      "nasa_jpl_url" : "http://ssd.jpl.nasa.gov/sbdb.cgi?sstr=2004688",
      "absolute_magnitude_h" : 19.4,
      "estimated_diameter" : {
        "kilometers" : {
          "estimated_diameter_min" : 0.3503926411,
          "estimated_diameter_max" : 0.7835017643
        },
        "meters" : {
          "estimated_diameter_min" : 350.3926411083,
          "estimated_diameter_max" : 783.5017643338
        },
        "miles" : {
          "estimated_diameter_min" : 0.2177238258,
          "estimated_diameter_max" : 0.4868452748
        },
        "feet" : {
          "estimated_diameter_min" : 1149.5821926537,
          "estimated_diameter_max" : 2570.543928497
        }
      },
      "is_potentially_hazardous_asteroid" : false,
      "close_approach_data" : [ {
        "close_approach_date" : "2011-01-08",
        "epoch_date_close_approach" : 1294473600000,
        "relative_velocity" : {
          "kilometers_per_second" : "8.0998845998",
          "kilometers_per_hour" : "29159.5845594113",
          "miles_per_hour" : "18118.6318613742"
        },
        "miss_distance" : {
          "astronomical" : "0.2089630015",
          "lunar" : "81.286605835",
          "kilometers" : "31260422",
          "miles" : "19424326"
        },
        "orbiting_body" : "Earth"
      } ],
      "orbital_data" : {
        "orbit_id" : "42",
        "orbit_determination_date" : "2017-04-06 09:30:32",
        "orbit_uncertainty" : "0",
        "minimum_orbit_intersection" : ".115951",
        "jupiter_tisserand_invariant" : "3.445",
        "epoch_osculation" : "2458000.5",
        "eccentricity" : ".5149739242330422",
        "semi_major_axis" : "2.235038023495604",
        "inclination" : "6.375851029412914",
        "ascending_node_longitude" : "241.3206166300131",
        "orbital_period" : "1220.466324689043",
        "perihelion_distance" : "1.08405172172601",
        "perihelion_argument" : "213.5649490283714",
        "aphelion_distance" : "3.386024325265198",
        "perihelion_time" : "2458007.540621412674",
        "mean_anomaly" : "357.9232333926063",
        "mean_motion" : ".2949692201394601",
        "equinox" : "J2000"
      }
    }, {
      "links" : {
        "self" : "https://api.nasa.gov/neo/rest/v1/neo/2259221?api_key=t0TVs3DtDT2H8Oy2Zy8m2eVrNsAVKAexjcZXUckd"
      },
      "neo_reference_id" : "2259221",
      "name" : "259221 (2003 BA21)",
      "nasa_jpl_url" : "http://ssd.jpl.nasa.gov/sbdb.cgi?sstr=2259221",
      "absolute_magnitude_h" : 19.2,
      "estimated_diameter" : {
        "kilometers" : {
          "estimated_diameter_min" : 0.3841978911,
          "estimated_diameter_max" : 0.8590926012
        },
        "meters" : {
          "estimated_diameter_min" : 384.1978910643,
          "estimated_diameter_max" : 859.0926012318
        },
        "miles" : {
          "estimated_diameter_min" : 0.2387294278,
          "estimated_diameter_max" : 0.5338152287
        },
        "feet" : {
          "estimated_diameter_min" : 1260.4918089193,
          "estimated_diameter_max" : 2818.5453698252
        }
      },
      "is_potentially_hazardous_asteroid" : false,
      "close_approach_data" : [ {
        "close_approach_date" : "2011-01-08",
        "epoch_date_close_approach" : 1294473600000,
        "relative_velocity" : {
          "kilometers_per_second" : "25.8316485898",
          "kilometers_per_hour" : "92993.9349234179",
          "miles_per_hour" : "57782.8147306093"
        },
        "miss_distance" : {
          "astronomical" : "0.208589588",
          "lunar" : "81.1413497925",
          "kilometers" : "31204558",
          "miles" : "19389614"
        },
        "orbiting_body" : "Earth"
      } ],
      "orbital_data" : {
        "orbit_id" : "40",
        "orbit_determination_date" : "2017-04-06 09:24:43",
        "orbit_uncertainty" : "0",
        "minimum_orbit_intersection" : ".13164",
        "jupiter_tisserand_invariant" : "5.195",
        "epoch_osculation" : "2458000.5",
        "eccentricity" : ".8331011938977626",
        "semi_major_axis" : "1.100261590809678",
        "inclination" : "23.70617095026805",
        "ascending_node_longitude" : "308.8793229286659",
        "orbital_period" : "421.5434595804446",
        "perihelion_distance" : ".1836323459062838",
        "perihelion_argument" : "18.13621485188891",
        "aphelion_distance" : "2.016890835713073",
        "perihelion_time" : "2458049.287226262507",
        "mean_anomaly" : "318.3354905518329",
        "mean_motion" : ".8540044728918393",
        "equinox" : "J2000"
      }
    }, {
      "links" : {
        "self" : "https://api.nasa.gov/neo/rest/v1/neo/2307070?api_key=t0TVs3DtDT2H8Oy2Zy8m2eVrNsAVKAexjcZXUckd"
      },
      "neo_reference_id" : "2307070",
      "name" : "307070 (2002 AV31)",
      "nasa_jpl_url" : "http://ssd.jpl.nasa.gov/sbdb.cgi?sstr=2307070",
      "absolute_magnitude_h" : 20.7,
      "estimated_diameter" : {
        "kilometers" : {
          "estimated_diameter_min" : 0.1925550782,
          "estimated_diameter_max" : 0.4305662442
        },
        "meters" : {
          "estimated_diameter_min" : 192.5550781879,
          "estimated_diameter_max" : 430.566244241
        },
        "miles" : {
          "estimated_diameter_min" : 0.1196481415,
          "estimated_diameter_max" : 0.2675413778
        },
        "feet" : {
          "estimated_diameter_min" : 631.7424027221,
          "estimated_diameter_max" : 1412.6189567557
        }
      },
      "is_potentially_hazardous_asteroid" : false,
      "close_approach_data" : [ {
        "close_approach_date" : "2011-01-08",
        "epoch_date_close_approach" : 1294473600000,
        "relative_velocity" : {
          "kilometers_per_second" : "8.3261824524",
          "kilometers_per_hour" : "29974.2568285463",
          "miles_per_hour" : "18624.8375277153"
        },
        "miss_distance" : {
          "astronomical" : "0.2794334462",
          "lunar" : "108.6996154785",
          "kilometers" : "41802652",
          "miles" : "25974962"
        },
        "orbiting_body" : "Earth"
      } ],
      "orbital_data" : {
        "orbit_id" : "75",
        "orbit_determination_date" : "2017-04-06 09:23:59",
        "orbit_uncertainty" : "0",
        "minimum_orbit_intersection" : ".143015",
        "jupiter_tisserand_invariant" : "4.911",
        "epoch_osculation" : "2458000.5",
        "eccentricity" : ".249441069304206",
        "semi_major_axis" : "1.310034736062646",
        "inclination" : "14.97551130247512",
        "ascending_node_longitude" : "119.3113637536016",
        "orbital_period" : "547.6746555831121",
        "perihelion_distance" : ".9832582706735261",
        "perihelion_argument" : "267.3785244832686",
        "aphelion_distance" : "1.636811201451766",
        "perihelion_time" : "2458217.784534408203",
        "mean_anomaly" : "217.173539820518",
        "mean_motion" : ".6573245563403077",
        "equinox" : "J2000"
      }
    } ]
  }
}